HULIANWANG DIGUI-76     
1 65308U 25187D   26199.81315495 -.00000092  00000+0  68540-4 0  9996
2 65308  50.0013  92.5682 0000085  45.4682 314.6197 13.29323937 43906
HULIANWANG DIGUI-77     
1 65309U 25187E   26199.80469846 -.00000091  00000+0  71482-4 0  9994
2 65309  50.0048  92.6131 0000131 189.7646 170.3223 13.29323877 43909
HULIANWANG DIGUI-78     
1 65310U 25187F   26199.83822799 -.00000094  00000+0  63910-4 0  9999
2 65310  50.0113  92.2982 0000079 347.8307  12.2563 13.29322825 43910
HULIANWANG DIGUI-79     
1 65311U 25187G   26199.82144889 -.00000095  00000+0  63227-4 0  9998
2 65311  50.0042  92.6871 0000123 334.9788  25.1078 13.29319673 43903
HULIANWANG DIGUI-80     
1 65312U 25187H   26199.79636486 -.00000098  00000+0  55417-4 0  9999
2 65312  50.0033  92.5333 0000125 187.2862 172.8009 13.29322977 43905
HULIANWANG DIGUI-81     
1 65313U 25187J   26199.85492356 -.00000096  00000+0  61423-4 0  9995
2 65313  50.0072  92.2812 0000079 338.4629  21.6240 13.29319740 43921
HULIANWANG DIGUI-82     
1 65817U 25220A   26199.81903791  .00000006  00000+0 -19972-4 0  9991
2 65817  86.4953  33.1743 0002213  99.2511 260.8873 13.24409683 39107
HULIANWANG DIGUI-83     
1 65818U 25220B   26199.50935506  .00000011  00000+0 -77721-5 0  9990
2 65818  86.4975  33.3388 0002234  98.7609 261.3778 13.24409980 39069
HULIANWANG DIGUI-84     
1 65819U 25220C   26199.04847341  .00000012  00000+0 -72030-5 0  9998
2 65819  86.4912  33.3040 0002167  99.2496 260.8883 13.24409773 39006
HULIANWANG DIGUI-85     
1 65820U 25220D   26199.79640181  .00000024  00000+0  22169-4 0  9994
2 65820  86.4973  33.2245 0002160 100.9242 259.2135 13.24408662 39102
HULIANWANG DIGUI-86     
1 65821U 25220E   26199.03350024  .00000027  00000+0  28114-4 0  9995
2 65821  86.4952  33.4133 0002051  85.0586 275.0783 13.24411483 39000
HULIANWANG DIGUI-87     
1 65995U 25231A   26199.89083164 -.00000100  00000+0  51814-4 0  9997
2 65995  50.0009  62.1250 0000472   5.9313 354.1565 13.29328297 37106
HULIANWANG DIGUI-88     
1 65996U 25231B   26199.82403972 -.00000102  00000+0  48173-4 0  9990
2 65996  49.9996  62.4111 0000483 347.5437  12.5423 13.29323856 37094
HULIANWANG DIGUI-89     
1 65997U 25231C   26199.80727976 -.00000101  00000+0  48565-4 0  9996
2 65997  49.9972  62.2758 0000533 355.5560   4.5307 13.29328168 37099
HULIANWANG DIGUI-90     
1 65998U 25231D   26199.79900007 -.00000106  00000+0  39421-4 0  9999
2 65998  50.0002  62.2959 0000524 349.3924  10.6937 13.29326553 37098
HULIANWANG DIGUI-91     
1 65999U 25231E   26199.86582067 -.00000107  00000+0  36141-4 0  9997
2 65999  50.0020  62.0257 0000502 351.6754   8.4109 13.29327191 37108
