{"fetched_at":"2026-07-19T07:05:14.667Z","source":"https://celestrak.org/NORAD/elements/gp.php?NAME=HULIANWANG&FORMAT=JSON","constellation":"guowang","records":[{"OBJECT_NAME":"HULIANWANG DIGUI-76","OBJECT_ID":"2025-187D","EPOCH":"2026-07-18T19:30:56.587680","CLASSIFICATION_TYPE":"U","MEAN_MOTION":13.29323937,"ECCENTRICITY":0.0000085,"INCLINATION":50.0013,"RA_OF_ASC_NODE":92.5682,"ARG_OF_PERICENTER":45.4682,"MEAN_ANOMALY":314.6197,"EPHEMERIS_TYPE":0,"NORAD_CAT_ID":65308,"ELEMENT_SET_NO":999,"REV_AT_EPOCH":4390,"BSTAR":0.00006854,"MEAN_MOTION_DOT":-9.2e-7,"MEAN_MOTION_DDOT":0},{"OBJECT_NAME":"HULIANWANG DIGUI-77","OBJECT_ID":"2025-187E","EPOCH":"2026-07-18T19:18:45.946944","CLASSIFICATION_TYPE":"U","MEAN_MOTION":13.29323877,"ECCENTRICITY":0.0000131,"INCLINATION":50.0048,"RA_OF_ASC_NODE":92.6131,"ARG_OF_PERICENTER":189.7646,"MEAN_ANOMALY":170.3223,"EPHEMERIS_TYPE":0,"NORAD_CAT_ID":65309,"ELEMENT_SET_NO":999,"REV_AT_EPOCH":4390,"BSTAR":0.000071482,"MEAN_MOTION_DOT":-9.1e-7,"MEAN_MOTION_DDOT":0},{"OBJECT_NAME":"HULIANWANG DIGUI-78","OBJECT_ID":"2025-187F","EPOCH":"2026-07-18T20:07:02.898336","CLASSIFICATION_TYPE":"U","MEAN_MOTION":13.29322825,"ECCENTRICITY":0.0000079,"INCLINATION":50.0113,"RA_OF_ASC_NODE":92.2982,"ARG_OF_PERICENTER":347.8307,"MEAN_ANOMALY":12.2563,"EPHEMERIS_TYPE":0,"NORAD_CAT_ID":65310,"ELEMENT_SET_NO":999,"REV_AT_EPOCH":4391,"BSTAR":0.00006391,"MEAN_MOTION_DOT":-9.4e-7,"MEAN_MOTION_DDOT":0},{"OBJECT_NAME":"HULIANWANG DIGUI-79","OBJECT_ID":"2025-187G","EPOCH":"2026-07-18T19:42:53.184096","CLASSIFICATION_TYPE":"U","MEAN_MOTION":13.29319673,"ECCENTRICITY":0.0000123,"INCLINATION":50.0042,"RA_OF_ASC_NODE":92.6871,"ARG_OF_PERICENTER":334.9788,"MEAN_ANOMALY":25.1078,"EPHEMERIS_TYPE":0,"NORAD_CAT_ID":65311,"ELEMENT_SET_NO":999,"REV_AT_EPOCH":4390,"BSTAR":0.000063227,"MEAN_MOTION_DOT":-9.5e-7,"MEAN_MOTION_DDOT":0},{"OBJECT_NAME":"HULIANWANG DIGUI-80","OBJECT_ID":"2025-187H","EPOCH":"2026-07-18T19:06:45.923904","CLASSIFICATION_TYPE":"U","MEAN_MOTION":13.29322977,"ECCENTRICITY":0.0000125,"INCLINATION":50.0033,"RA_OF_ASC_NODE":92.5333,"ARG_OF_PERICENTER":187.2862,"MEAN_ANOMALY":172.8009,"EPHEMERIS_TYPE":0,"NORAD_CAT_ID":65312,"ELEMENT_SET_NO":999,"REV_AT_EPOCH":4390,"BSTAR":0.000055417,"MEAN_MOTION_DOT":-9.8e-7,"MEAN_MOTION_DDOT":0},{"OBJECT_NAME":"HULIANWANG DIGUI-81","OBJECT_ID":"2025-187J","EPOCH":"2026-07-18T20:31:05.395584","CLASSIFICATION_TYPE":"U","MEAN_MOTION":13.2931974,"ECCENTRICITY":0.0000079,"INCLINATION":50.0072,"RA_OF_ASC_NODE":92.2812,"ARG_OF_PERICENTER":338.4629,"MEAN_ANOMALY":21.624,"EPHEMERIS_TYPE":0,"NORAD_CAT_ID":65313,"ELEMENT_SET_NO":999,"REV_AT_EPOCH":4392,"BSTAR":0.000061423,"MEAN_MOTION_DOT":-9.6e-7,"MEAN_MOTION_DDOT":0},{"OBJECT_NAME":"HULIANWANG DIGUI-82","OBJECT_ID":"2025-220A","EPOCH":"2026-07-18T19:39:24.875424","CLASSIFICATION_TYPE":"U","MEAN_MOTION":13.24409683,"ECCENTRICITY":0.0002213,"INCLINATION":86.4953,"RA_OF_ASC_NODE":33.1743,"ARG_OF_PERICENTER":99.2511,"MEAN_ANOMALY":260.8873,"EPHEMERIS_TYPE":0,"NORAD_CAT_ID":65817,"ELEMENT_SET_NO":999,"REV_AT_EPOCH":3910,"BSTAR":-0.000019972,"MEAN_MOTION_DOT":6e-8,"MEAN_MOTION_DDOT":0},{"OBJECT_NAME":"HULIANWANG DIGUI-83","OBJECT_ID":"2025-220B","EPOCH":"2026-07-18T12:13:28.277184","CLASSIFICATION_TYPE":"U","MEAN_MOTION":13.2440998,"ECCENTRICITY":0.00022344,"INCLINATION":86.4975,"RA_OF_ASC_NODE":33.3388,"ARG_OF_PERICENTER":98.7609,"MEAN_ANOMALY":261.3778,"EPHEMERIS_TYPE":0,"NORAD_CAT_ID":65818,"ELEMENT_SET_NO":999,"REV_AT_EPOCH":3906,"BSTAR":-0.000007772093,"MEAN_MOTION_DOT":1.1e-7,"MEAN_MOTION_DDOT":0},{"OBJECT_NAME":"HULIANWANG DIGUI-84","OBJECT_ID":"2025-220C","EPOCH":"2026-07-18T01:09:48.102624","CLASSIFICATION_TYPE":"U","MEAN_MOTION":13.24409773,"ECCENTRICITY":0.0002167,"INCLINATION":86.4912,"RA_OF_ASC_NODE":33.304,"ARG_OF_PERICENTER":99.2496,"MEAN_ANOMALY":260.8883,"EPHEMERIS_TYPE":0,"NORAD_CAT_ID":65819,"ELEMENT_SET_NO":999,"REV_AT_EPOCH":3900,"BSTAR":-0.000007203018,"MEAN_MOTION_DOT":1.2e-7,"MEAN_MOTION_DDOT":0},{"OBJECT_NAME":"HULIANWANG DIGUI-85","OBJECT_ID":"2025-220D","EPOCH":"2026-07-18T19:06:49.116384","CLASSIFICATION_TYPE":"U","MEAN_MOTION":13.24408662,"ECCENTRICITY":0.000216,"INCLINATION":86.4973,"RA_OF_ASC_NODE":33.2245,"ARG_OF_PERICENTER":100.9242,"MEAN_ANOMALY":259.2135,"EPHEMERIS_TYPE":0,"NORAD_CAT_ID":65820,"ELEMENT_SET_NO":999,"REV_AT_EPOCH":3910,"BSTAR":0.000022169,"MEAN_MOTION_DOT":2.4e-7,"MEAN_MOTION_DDOT":0},{"OBJECT_NAME":"HULIANWANG DIGUI-86","OBJECT_ID":"2025-220E","EPOCH":"2026-07-18T00:48:14.420736","CLASSIFICATION_TYPE":"U","MEAN_MOTION":13.24411483,"ECCENTRICITY":0.00020519,"INCLINATION":86.4952,"RA_OF_ASC_NODE":33.4133,"ARG_OF_PERICENTER":85.0586,"MEAN_ANOMALY":275.0783,"EPHEMERIS_TYPE":0,"NORAD_CAT_ID":65821,"ELEMENT_SET_NO":999,"REV_AT_EPOCH":3900,"BSTAR":0.000028113666,"MEAN_MOTION_DOT":2.7e-7,"MEAN_MOTION_DDOT":0},{"OBJECT_NAME":"HULIANWANG DIGUI-87","OBJECT_ID":"2025-231A","EPOCH":"2026-07-18T21:22:47.853696","CLASSIFICATION_TYPE":"U","MEAN_MOTION":13.29328297,"ECCENTRICITY":0.0000472,"INCLINATION":50.0009,"RA_OF_ASC_NODE":62.125,"ARG_OF_PERICENTER":5.9313,"MEAN_ANOMALY":354.1565,"EPHEMERIS_TYPE":0,"NORAD_CAT_ID":65995,"ELEMENT_SET_NO":999,"REV_AT_EPOCH":3710,"BSTAR":0.000051814,"MEAN_MOTION_DOT":-0.000001,"MEAN_MOTION_DDOT":0},{"OBJECT_NAME":"HULIANWANG DIGUI-88","OBJECT_ID":"2025-231B","EPOCH":"2026-07-18T19:46:37.031808","CLASSIFICATION_TYPE":"U","MEAN_MOTION":13.29323856,"ECCENTRICITY":0.0000483,"INCLINATION":49.9996,"RA_OF_ASC_NODE":62.4111,"ARG_OF_PERICENTER":347.5437,"MEAN_ANOMALY":12.5423,"EPHEMERIS_TYPE":0,"NORAD_CAT_ID":65996,"ELEMENT_SET_NO":999,"REV_AT_EPOCH":3709,"BSTAR":0.000048173,"MEAN_MOTION_DOT":-0.00000102,"MEAN_MOTION_DDOT":0},{"OBJECT_NAME":"HULIANWANG DIGUI-89","OBJECT_ID":"2025-231C","EPOCH":"2026-07-18T19:22:28.971264","CLASSIFICATION_TYPE":"U","MEAN_MOTION":13.29328168,"ECCENTRICITY":0.0000533,"INCLINATION":49.9972,"RA_OF_ASC_NODE":62.2758,"ARG_OF_PERICENTER":355.556,"MEAN_ANOMALY":4.5307,"EPHEMERIS_TYPE":0,"NORAD_CAT_ID":65997,"ELEMENT_SET_NO":999,"REV_AT_EPOCH":3709,"BSTAR":0.000048565,"MEAN_MOTION_DOT":-0.00000101,"MEAN_MOTION_DDOT":0},{"OBJECT_NAME":"HULIANWANG DIGUI-90","OBJECT_ID":"2025-231D","EPOCH":"2026-07-18T19:10:33.606048","CLASSIFICATION_TYPE":"U","MEAN_MOTION":13.29326553,"ECCENTRICITY":0.0000524,"INCLINATION":50.0002,"RA_OF_ASC_NODE":62.2959,"ARG_OF_PERICENTER":349.3924,"MEAN_ANOMALY":10.6937,"EPHEMERIS_TYPE":0,"NORAD_CAT_ID":65998,"ELEMENT_SET_NO":999,"REV_AT_EPOCH":3709,"BSTAR":0.000039421,"MEAN_MOTION_DOT":-0.00000106,"MEAN_MOTION_DDOT":0},{"OBJECT_NAME":"HULIANWANG DIGUI-91","OBJECT_ID":"2025-231E","EPOCH":"2026-07-18T20:46:46.905888","CLASSIFICATION_TYPE":"U","MEAN_MOTION":13.29327191,"ECCENTRICITY":0.0000502,"INCLINATION":50.002,"RA_OF_ASC_NODE":62.0257,"ARG_OF_PERICENTER":351.6754,"MEAN_ANOMALY":8.4109,"EPHEMERIS_TYPE":0,"NORAD_CAT_ID":65999,"ELEMENT_SET_NO":999,"REV_AT_EPOCH":3710,"BSTAR":0.000036141,"MEAN_MOTION_DOT":-0.00000107,"MEAN_MOTION_DDOT":0}]}
